[{"OBJECT_NAME":"TWILIGHT-1 OBJECT G","OBJECT_ID":"2026-004G","EPOCH":"2026-03-09T22:25:33.147552","MEAN_MOTION":14.87376995,"ECCENTRICITY":0.00087559,"INCLINATION":97.7988,"RA_OF_ASC_NODE":69.0779,"ARG_OF_PERICENTER":108.1827,"MEAN_ANOMALY":252.0343,"EPHEMERIS_TYPE":0,"CLASSIFICATION_TYPE":"U","NORAD_CAT_ID":67369,"ELEMENT_SET_NO":999,"REV_AT_EPOCH":853,"BSTAR":0.00040748654,"MEAN_MOTION_DOT":3.632e-5,"MEAN_MOTION_DDOT":0},{"OBJECT_NAME":"TITAN 3C TRANSTAGE DEB","OBJECT_ID":"1965-082AF","EPOCH":"2026-03-09T01:14:43.860192","MEAN_MOTION":14.82280461,"ECCENTRICITY":0.00143376,"INCLINATION":32.0679,"RA_OF_ASC_NODE":67.4525,"ARG_OF_PERICENTER":138.4883,"MEAN_ANOMALY":221.6857,"EPHEMERIS_TYPE":0,"CLASSIFICATION_TYPE":"U","NORAD_CAT_ID":1668,"ELEMENT_SET_NO":999,"REV_AT_EPOCH":20347,"BSTAR":0.00029021131,"MEAN_MOTION_DOT":2.413e-5,"MEAN_MOTION_DDOT":0}]
